COSMOS 1892             
1 18421U 87088A   20180.15553539  .00000273  00000-0  12037-4 0  9993
2 18421  82.5008 262.9477 0015875  34.6105 325.6158 15.17161874786397
SL-14 R/B               
1 18749U 88001B   20180.02621103  .00000061  00000-0  45344-5 0  9994
2 18749  82.5139 347.7333 0017209 262.9129 236.6951 14.83220917754532
COSMOS 1933             
1 18958U 88020A   20179.97482907  .00000479  00000-0  32807-4 0  9998
2 18958  82.5303 115.4392 0012889 112.9700 247.2888 15.03736131736664
SL-3 R/B                
1 19046U 88032B   20180.44804377 -.00000213  00000-0 -11293-4 0  9997
2 19046  97.4039 201.0331 0038145 164.4615 195.7791 15.02731497738907
SL-16 R/B               
1 19120U 88039B   20180.32230914 -.00000180  00000-0 -62525-4 0  9991
2 19120  71.0130 145.5571 0024065 288.5534  71.2976 14.19208631663469
COSMOS 1953             
1 19210U 88050A   20180.01157475  .00000518  00000-0  33468-4 0  9997
2 19210  82.5158  39.5832 0015136  82.2450 278.0495 15.05979119744389
SL-8 R/B                
1 19257U 88053B   20180.43523939  .00000013  00000-0  13169-4 0  9995
2 19257  74.0493 340.7919 0021143 315.5583 106.2567 14.37472380677867
COSMOS 1975             
1 19573U 88093A   20179.99434704 -.00000207  00000-0 -16710-4 0  9992
2 19573  82.5195 353.9692 0015708 124.1508 236.1211 15.04892218726232
SL-14 R/B               
1 19574U 88093B   20180.08292319  .00000057  00000-0  39697-5 0  9990
2 19574  82.5310 190.1063 0023106  68.6138 347.3658 14.83331119692446
SL-16 R/B               
1 19650U 88102B   20180.43578664 -.00000231  00000-0 -93098-4 0  9995
2 19650  70.9975 206.8150 0016414 293.7734  66.1667 14.15792460632713
INTERCOSMOS 24          
1 20261U 89080A   20179.93447225  .00000062  00000-0  92551-5 0  9996
2 20261  82.6047  13.4978 1203627  63.7038 308.2617 12.56121794405318
SL-14 R/B               
1 20262U 89080C   20179.98900214 -.00000001  00000-0 -13810-5 0  9990
2 20262  82.5959  67.1835 1235973 253.0956  93.1273 12.48941449399879
DELTA 2 R/B(1)          
1 20303U 89085B   20180.44467290  .00001066  00000-0  35948-4 0  9991
2 20303  35.6248 301.4388 0095712 273.8661  85.1128 15.27390660669748
DELTA 1 R/B             
1 20323U 89089B   20180.41169939  .00000023  00000-0  15183-4 0  9994
2 20323  97.0918 324.4801 0071356 195.3505 164.5528 14.48350125614980
ARIANE 40 R/B           
1 20443U 90005H   20180.15831632 -.00000007  00000-0  12380-4 0  9993
2 20443  98.5750 241.9647 0009454 316.0417  44.0017 14.38091087593910
DELTA 2 R/B(1)          
1 20453U 90008B   20180.17370202  .00000704  00000-0  42845-4 0  9992
2 20453  35.6225 193.1027 0280261  34.2742 327.5720 14.85590397612795
COSMOS 2058             
1 20465U 90010A   20180.47037800  .00000081  00000-0  44894-5 0  9990
2 20465  82.4899 262.7399 0016034 158.5262 201.6637 14.98017214651082
SL-14 R/B               
1 20466U 90010B   20180.14897458  .00000048  00000-0  31970-5 0  9992
2 20466  82.5035  56.7701 0019224 305.0269  54.9141 14.81386800641376
SL-14 R/B               
1 20511U 90018B   20180.54736039  .00000058  00000-0  44903-5 0  9993
2 20511  82.5227   2.8202 0019033  82.3605 330.5752 14.80042811635852
HST                     
1 20580U 90037B   20180.19282257  .00000334  00000-0  92977-5 0  9990
2 20580  28.4690 248.6355 0002528 202.9676 185.4833 15.09401107457598
SL-16 R/B               
1 20625U 90046B   20180.46526431 -.00000223  00000-0 -90791-4 0  9995
2 20625  70.9999 345.0854 0016068 231.6709 128.2970 14.14658086554420
COSMOS 2084             
1 20663U 90055A   20180.04219826 -.00000076  00000-0  10477-4 0  9996
2 20663  62.7945 132.8324 0028611 266.5131  93.2690 14.92092413624935
SL-6 R/B(2)             
1 20666U 90055D   20180.15995323 -.00000082  00000-0  10256-4 0  9996
2 20666  62.7870  48.8437 0045967 344.0439  15.9204 14.92343717626897
SL-8 R/B                
1 20775U 90078B   20180.12654022  .00001463  00000-0  68992-4 0  9990
2 20775  82.9263 217.8242 0574182 161.5059 200.7991 14.34372040507269
SL-8 R/B                
1 21088U 91006B   20180.35581260  .00000022  00000-0  67688-5 0  9990
2 21088  82.9432 277.1067 0023986 100.5251 320.5705 13.77149879477984
OKEAN-3                 
1 21397U 91039A   20180.43964755  .00000152  00000-0  12034-4 0  9990
2 21397  82.5210 166.2546 0019059 129.4928 230.7981 14.92933416574964
COSMOS 2151             
1 21422U 91042A   20179.98682180  .00000112  00000-0  84261-5 0  9998
2 21422  82.5012 272.9113 0013853 191.5828 168.5075 14.92138007552458
SL-14 R/B               
1 21423U 91042B   20180.01122256  .00000059  00000-0  48253-5 0  9999
2 21423  82.4935   7.0373 0016557 220.9811 139.0158 14.79793220545221
ERS-1                   
1 21574U 91050A   20179.85589822  .00000016  00000-0  20167-4 0  9997
2 21574  98.5980 133.2181 0031775 255.9806 103.7847 14.37747224516617
ARIANE 40 R/B           
1 21610U 91050F   20180.16275691 -.00000010  00000-0  10514-4 0  9990
2 21610  98.4646 249.2910 0002557 206.8659 174.4116 14.40907054519521
INTERCOSMOS 25          
1 21819U 91086A   20180.28696004  .00000290  00000-0  59286-4 0  9996
2 21819  82.5940 119.8568 1515426 248.8339  94.4563 12.05144135245604
SL-8 R/B                
1 21876U 92008B   20180.07928897 -.00000019  00000-0 -35460-4 0  9998
2 21876  82.9257  14.5247 0034677 182.0832 291.2465 13.75658626423336
SL-8 R/B                
1 21938U 92020B   20180.51079213  .00000010  00000-0 -47372-5 0  9995
2 21938  82.9306 258.3497 0028713 345.3455  26.2984 13.75285666415494
COSMOS 2219             
1 22219U 92076A   20180.04329066 -.00000192  00000-0 -76928-4 0  9991
2 22219  71.0595  45.5920 0017091 144.3475 215.8793 14.13637134424633
SL-16 R/B               
1 22220U 92076B   20180.15647251  .00000203  00000-0  12578-3 0  9995
2 22220  71.0001 249.0526 0012097  16.5932   3.5567 14.16455999427194
COSMOS 2221             
1 22236U 92080A   20180.04952184  .00000136  00000-0  12190-4 0  9995
2 22236  82.5087  93.6459 0015198 288.8533  71.1036 14.87929279470854
SL-16 R/B               
1 22285U 92093B   20180.25777286  .00000106  00000-0  79478-4 0  9993
2 22285  71.0216  49.8512 0006120 248.2257 111.8215 14.15041758419140
COSMOS 2228             
1 22286U 92094A   20180.26919102  .00000129  00000-0  11171-4 0  9992
2 22286  82.5203  49.6865 0022322  48.1131 312.1986 14.88147304487121
SL-16 R/B               
1 22566U 93016B   20180.49688149 -.00000058  00000-0 -52086-5 0  9991
2 22566  71.0072 262.5692 0012417 252.0626 107.9143 14.14960597407901
COSMOS 2242             
1 22626U 93024A   20180.44972580  .00000122  00000-0  10540-4 0  9995
2 22626  82.5225  77.6461 0020160  47.7240 312.5683 14.88003326470798
SL-16 R/B               
1 22803U 93059B   20180.41611243 -.00000202  00000-0 -76913-4 0  9990
2 22803  70.9912  76.1650 0015873 145.5805 214.6350 14.16821634385117
ARIANE 40 R/B           
1 22830U 93061H   20180.13749847 -.00000039  00000-0  23584-5 0  9998
2 22830  98.7640 229.4303 0009811 293.0042  67.0105 14.31451665396354
COSMOS 2278             
1 23087U 94023A   20180.42705740 -.00000320  00000-0 -14400-3 0  9997
2 23087  71.0523 204.7197 0010807 313.6532  46.3694 14.13808343350992
SL-16 R/B               
1 23088U 94023B   20180.07869666  .00000289  00000-0  17496-3 0  9997
2 23088  71.0006 118.8200 0004929 237.5713 122.4933 14.14689509352088
SL-16 R/B               
1 23343U 94074B   20180.14129094 -.00000013  00000-0  54349-5 0  9995
2 23343  97.9981 233.0474 0008201 112.4132 271.7506 14.76827505380204
SL-16 R/B               
1 23405U 94077B   20180.08796503  .00000090  00000-0  70981-4 0  9998
2 23405  70.9844  48.1037 0000595  47.8772 312.2401 14.15223746321863
ERS-2                   
1 23560U 95021A   20180.00385967  .00000390  00000-0  20273-4 0  9992
2 23560  98.5428 334.9499 0004480 125.0152 235.1503 15.23195890343728
ARIANE 40+ R/B          
1 23561U 95021B   20180.16428578 -.00000006  00000-0  13098-4 0  9998
2 23561  98.7229 219.5209 0006247 214.0198 182.0335 14.37973296320118
SL-16 R/B               
1 23705U 95058B   20180.47307014 -.00000210  00000-0 -83594-4 0  9999
2 23705  71.0207 225.8321 0010856  42.6185 317.5779 14.15135142273834
SL-16 R/B               
1 24298U 96051B   20180.13761845 -.00000035  00000-0  75311-5 0  9993
2 24298  70.8435 248.0042 0016142 325.8789  34.1292 14.12501428227864
ORBVIEW 2 (SEASTAR)     
1 24883U 97037A   20179.94019488  .00000007  00000-0  18476-4 0  9990
2 24883  98.6121 293.1740 0003478  81.7107 278.4472 14.33559795210217
SL-16 R/B               
1 25400U 98043G   20179.82176041 -.00000016  00000-0  11507-4 0  9999
2 25400  98.6077 115.5588 0009041 309.6372  50.4009 14.25457066142495
SL-16 R/B               
1 25407U 98045B   20180.43209853 -.00000282  00000-0 -11918-3 0  9996
2 25407  71.0110 234.5368 0009502 308.5667  51.4604 14.15799980132900
ISS (ZARYA)             
1 25544U 98067A   20180.71995525  .00001002  00000-0  25951-4 0  9993
2 25544  51.6457 291.3833 0002331  93.1339  52.1752 15.49468203233806
SL-8 R/B                
1 25723U 99022C   20179.68042116  .00012170  00000-0  85407-4 0  9997
2 25723  48.4099 308.0875 0004399  13.8390 346.2683 15.74528110179592
CZ-4B R/B               
1 25732U 99025C   20180.12528626 -.00000020  00000-0  12366-4 0  9992
2 25732  98.9432 208.9351 0037405 178.5422 218.4829 14.17678138 93330
OKEAN-O                 
1 25860U 99039A   20180.08184349  .00000017  00000-0  10054-4 0  9991
2 25860  98.2130 199.2662 0001330 114.9241 245.2107 14.76666087127080
SL-16 R/B               
1 25861U 99039B   20180.45068188  .00000008  00000-0  86421-5 0  9997
2 25861  98.2070 182.8239 0016821 120.1107  47.6137 14.78581560129389
DELTA 2 R/B             
1 25876U 99041E   20179.96904219 -.00000197  00000-0  79088-5 0  9995
2 25876  51.7644 268.8427 0531346  14.8537 346.7340 14.04431709 70102
